IDEFIX & ARIANE 42P R/B 
1 27422U 02021B   26054.23213321  .00000286  00000+0  12546-3 0  9992
2 27422  98.5857 353.0126 0010823 226.9826 133.0451 14.31014785241952
AQUA                    
1 27424U 02022A   26054.10489501  .00001076  00000+0  22477-3 0  9998
2 27424  98.4148  21.2074 0000969  47.6484   5.4094 14.61937315266600
CZ-4B R/B               
1 27432U 02024C   26054.14760435  .00000024  00000+0  35256-4 0  9993
2 27432  98.8874 107.6254 0051042  64.9881 354.7138 14.14544807227186
MIDORI II (ADEOS-II)    
1 27597U 02056A   26054.17264823  .00000258  00000+0  11926-3 0  9999
2 27597  98.7743  12.5526 0002026  63.7486 296.3904 14.29272855208227
H-2A R/B                
1 27601U 02056E   26054.18177398  .00000280  00000+0  11277-3 0  9990
2 27601  98.3175  15.1022 0069604 203.9847 166.4828 14.33749873212032
CZ-4B R/B               
1 28059U 03049C   26053.94221324  .00000428  00000+0  10987-3 0  9994
2 28059  98.6865  48.2703 0047014 277.0080  82.5770 14.55003568184450
CZ-2C R/B               
1 28222U 04012C   26054.14539308  .00058109  00000+0  64325-3 0  9998
2 28222  97.7262 118.0783 0014233   7.7276 352.4198 15.62699928202004
SL-16 R/B               
1 28353U 04021B   26054.03166946  .00000172  00000+0  11432-3 0  9993
2 28353  70.9989 263.2557 0003347  42.9000 317.2383 14.14598460120762
CZ-4B R/B               
1 28415U 04035C   26054.05255159  .00009943  00000+0  35250-3 0  9993
2 28415  97.3525  88.4720 0032816  23.8784 336.3970 15.28768070177677
CZ-2C R/B               
1 28480U 04046B   26054.18127941  .00000127  00000+0  62495-4 0  9995
2 28480  98.1989 330.0672 0138988 197.3227 162.3188 14.26986746106433
ARIANE 5 R/B            
1 28499U 04049H   26054.21571798  .00000828  00000+0  97571-4 0  9996
2 28499  98.2603 222.1336 0084945  38.6973 322.0285 14.85235609143640
CZ-2D R/B               
1 28738U 05024B   26054.01458929  .00045684  00000+0  59161-3 0  9995
2 28738  97.3617  68.6386 0007464  81.6614 278.5488 15.58735264137499
