CCSDS_OMM_VERS = 2.0
CREATION_DATE  = 
ORIGINATOR     = 

OBJECT_NAME    = IDEFIX & ARIANE 42P R/B
OBJECT_ID      = 2002-021B
CENTER_NAME    = EARTH
REF_FRAME      = TEME
TIME_SYSTEM    = UTC
MEAN_ELEMENT_THEORY = SGP/SGP4

EPOCH          = 2026-02-23T05:34:16.309344
MEAN_MOTION    = 14.31014785
ECCENTRICITY   = .00108232
INCLINATION    = 98.5857
RA_OF_ASC_NODE = 353.0126
ARG_OF_PERICENTER = 226.9826
MEAN_ANOMALY   = 133.0451

EPHEMERIS_TYPE = 0
CLASSIFICATION_TYPE = U
NORAD_CAT_ID   = 27422
ELEMENT_SET_NO = 999
REV_AT_EPOCH   = 24195
BSTAR          = .12546194E-3
MEAN_MOTION_DOT = .286E-5
MEAN_MOTION_DDOT = 0

CCSDS_OMM_VERS = 2.0
CREATION_DATE  = 
ORIGINATOR     = 

OBJECT_NAME    = AQUA
OBJECT_ID      = 2002-022A
CENTER_NAME    = EARTH
REF_FRAME      = TEME
TIME_SYSTEM    = UTC
MEAN_ELEMENT_THEORY = SGP/SGP4

EPOCH          = 2026-02-23T02:31:02.928864
MEAN_MOTION    = 14.61937315
ECCENTRICITY   = .00009691
INCLINATION    = 98.4148
RA_OF_ASC_NODE = 21.2074
ARG_OF_PERICENTER = 47.6484
MEAN_ANOMALY   = 5.4094

EPHEMERIS_TYPE = 0
CLASSIFICATION_TYPE = U
NORAD_CAT_ID   = 27424
ELEMENT_SET_NO = 999
REV_AT_EPOCH   = 26660
BSTAR          = .22476626E-3
MEAN_MOTION_DOT = .1076E-4
MEAN_MOTION_DDOT = 0

CCSDS_OMM_VERS = 2.0
CREATION_DATE  = 
ORIGINATOR     = 

OBJECT_NAME    = CZ-4B R/B
OBJECT_ID      = 2002-024C
CENTER_NAME    = EARTH
REF_FRAME      = TEME
TIME_SYSTEM    = UTC
MEAN_ELEMENT_THEORY = SGP/SGP4

EPOCH          = 2026-02-23T03:32:33.015840
MEAN_MOTION    = 14.14544807
ECCENTRICITY   = .00510425
INCLINATION    = 98.8874
RA_OF_ASC_NODE = 107.6254
ARG_OF_PERICENTER = 64.9881
MEAN_ANOMALY   = 354.7138

EPHEMERIS_TYPE = 0
CLASSIFICATION_TYPE = U
NORAD_CAT_ID   = 27432
ELEMENT_SET_NO = 999
REV_AT_EPOCH   = 22718
BSTAR          = .35255992E-4
MEAN_MOTION_DOT = .24E-6
MEAN_MOTION_DDOT = 0

CCSDS_OMM_VERS = 2.0
CREATION_DATE  = 
ORIGINATOR     = 

OBJECT_NAME    = MIDORI II (ADEOS-II)
OBJECT_ID      = 2002-056A
CENTER_NAME    = EARTH
REF_FRAME      = TEME
TIME_SYSTEM    = UTC
MEAN_ELEMENT_THEORY = SGP/SGP4

EPOCH          = 2026-02-23T04:08:36.807072
MEAN_MOTION    = 14.29272855
ECCENTRICITY   = .00020261
INCLINATION    = 98.7743
RA_OF_ASC_NODE = 12.5526
ARG_OF_PERICENTER = 63.7486
MEAN_ANOMALY   = 296.3904

EPHEMERIS_TYPE = 0
CLASSIFICATION_TYPE = U
NORAD_CAT_ID   = 27597
ELEMENT_SET_NO = 999
REV_AT_EPOCH   = 20822
BSTAR          = .11926071E-3
MEAN_MOTION_DOT = .258E-5
MEAN_MOTION_DDOT = 0

CCSDS_OMM_VERS = 2.0
CREATION_DATE  = 
ORIGINATOR     = 

OBJECT_NAME    = H-2A R/B
OBJECT_ID      = 2002-056E
CENTER_NAME    = EARTH
REF_FRAME      = TEME
TIME_SYSTEM    = UTC
MEAN_ELEMENT_THEORY = SGP/SGP4

EPOCH          = 2026-02-23T04:21:45.271872
MEAN_MOTION    = 14.33749873
ECCENTRICITY   = .00696044
INCLINATION    = 98.3175
RA_OF_ASC_NODE = 15.1022
ARG_OF_PERICENTER = 203.9847
MEAN_ANOMALY   = 166.4828

EPHEMERIS_TYPE = 0
CLASSIFICATION_TYPE = U
NORAD_CAT_ID   = 27601
ELEMENT_SET_NO = 999
REV_AT_EPOCH   = 21203
BSTAR          = .11277223E-3
MEAN_MOTION_DOT = .28E-5
MEAN_MOTION_DDOT = 0

CCSDS_OMM_VERS = 2.0
CREATION_DATE  = 
ORIGINATOR     = 

OBJECT_NAME    = CZ-4B R/B
OBJECT_ID      = 2003-049C
CENTER_NAME    = EARTH
REF_FRAME      = TEME
TIME_SYSTEM    = UTC
MEAN_ELEMENT_THEORY = SGP/SGP4

EPOCH          = 2026-02-22T22:36:47.223936
MEAN_MOTION    = 14.55003568
ECCENTRICITY   = .0047014
INCLINATION    = 98.6865
RA_OF_ASC_NODE = 48.2703
ARG_OF_PERICENTER = 277.0080
MEAN_ANOMALY   = 82.5770

EPHEMERIS_TYPE = 0
CLASSIFICATION_TYPE = U
NORAD_CAT_ID   = 28059
ELEMENT_SET_NO = 999
REV_AT_EPOCH   = 18445
BSTAR          = .10987E-3
MEAN_MOTION_DOT = .428E-5
MEAN_MOTION_DDOT = 0

CCSDS_OMM_VERS = 2.0
CREATION_DATE  = 
ORIGINATOR     = 

OBJECT_NAME    = CZ-2C R/B
OBJECT_ID      = 2004-012C
CENTER_NAME    = EARTH
REF_FRAME      = TEME
TIME_SYSTEM    = UTC
MEAN_ELEMENT_THEORY = SGP/SGP4

EPOCH          = 2026-02-23T03:29:21.962112
MEAN_MOTION    = 15.62699928
ECCENTRICITY   = .00142333
INCLINATION    = 97.7262
RA_OF_ASC_NODE = 118.0783
ARG_OF_PERICENTER = 7.7276
MEAN_ANOMALY   = 352.4198

EPHEMERIS_TYPE = 0
CLASSIFICATION_TYPE = U
NORAD_CAT_ID   = 28222
ELEMENT_SET_NO = 999
REV_AT_EPOCH   = 20200
BSTAR          = .64325257E-3
MEAN_MOTION_DOT = .58109E-3
MEAN_MOTION_DDOT = 0

CCSDS_OMM_VERS = 2.0
CREATION_DATE  = 
ORIGINATOR     = 

OBJECT_NAME    = SL-16 R/B
OBJECT_ID      = 2004-021B
CENTER_NAME    = EARTH
REF_FRAME      = TEME
TIME_SYSTEM    = UTC
MEAN_ELEMENT_THEORY = SGP/SGP4

EPOCH          = 2026-02-23T00:45:36.241344
MEAN_MOTION    = 14.14598460
ECCENTRICITY   = .00033474
INCLINATION    = 70.9989
RA_OF_ASC_NODE = 263.2557
ARG_OF_PERICENTER = 42.9000
MEAN_ANOMALY   = 317.2383

EPHEMERIS_TYPE = 0
CLASSIFICATION_TYPE = U
NORAD_CAT_ID   = 28353
ELEMENT_SET_NO = 999
REV_AT_EPOCH   = 12076
BSTAR          = .11431612E-3
MEAN_MOTION_DOT = .172E-5
MEAN_MOTION_DDOT = 0

CCSDS_OMM_VERS = 2.0
CREATION_DATE  = 
ORIGINATOR     = 

OBJECT_NAME    = CZ-4B R/B
OBJECT_ID      = 2004-035C
CENTER_NAME    = EARTH
REF_FRAME      = TEME
TIME_SYSTEM    = UTC
MEAN_ELEMENT_THEORY = SGP/SGP4

EPOCH          = 2026-02-23T01:15:40.457376
MEAN_MOTION    = 15.28768070
ECCENTRICITY   = .00328169
INCLINATION    = 97.3525
RA_OF_ASC_NODE = 88.4720
ARG_OF_PERICENTER = 23.8784
MEAN_ANOMALY   = 336.3970

EPHEMERIS_TYPE = 0
CLASSIFICATION_TYPE = U
NORAD_CAT_ID   = 28415
ELEMENT_SET_NO = 999
REV_AT_EPOCH   = 17767
BSTAR          = .35249541E-3
MEAN_MOTION_DOT = .9943E-4
MEAN_MOTION_DDOT = 0

CCSDS_OMM_VERS = 2.0
CREATION_DATE  = 
ORIGINATOR     = 

OBJECT_NAME    = CZ-2C R/B
OBJECT_ID      = 2004-046B
CENTER_NAME    = EARTH
REF_FRAME      = TEME
TIME_SYSTEM    = UTC
MEAN_ELEMENT_THEORY = SGP/SGP4

EPOCH          = 2026-02-23T04:21:02.541024
MEAN_MOTION    = 14.26986746
ECCENTRICITY   = .01389885
INCLINATION    = 98.1989
RA_OF_ASC_NODE = 330.0672
ARG_OF_PERICENTER = 197.3227
MEAN_ANOMALY   = 162.3188

EPHEMERIS_TYPE = 0
CLASSIFICATION_TYPE = U
NORAD_CAT_ID   = 28480
ELEMENT_SET_NO = 999
REV_AT_EPOCH   = 10643
BSTAR          = .62495255E-4
MEAN_MOTION_DOT = .127E-5
MEAN_MOTION_DDOT = 0

CCSDS_OMM_VERS = 2.0
CREATION_DATE  = 
ORIGINATOR     = 

OBJECT_NAME    = ARIANE 5 R/B
OBJECT_ID      = 2004-049H
CENTER_NAME    = EARTH
REF_FRAME      = TEME
TIME_SYSTEM    = UTC
MEAN_ELEMENT_THEORY = SGP/SGP4

EPOCH          = 2026-02-23T05:10:38.033472
MEAN_MOTION    = 14.85235609
ECCENTRICITY   = .00849454
INCLINATION    = 98.2603
RA_OF_ASC_NODE = 222.1336
ARG_OF_PERICENTER = 38.6973
MEAN_ANOMALY   = 322.0285

EPHEMERIS_TYPE = 0
CLASSIFICATION_TYPE = U
NORAD_CAT_ID   = 28499
ELEMENT_SET_NO = 999
REV_AT_EPOCH   = 14364
BSTAR          = .97570853E-4
MEAN_MOTION_DOT = .828E-5
MEAN_MOTION_DDOT = 0

CCSDS_OMM_VERS = 2.0
CREATION_DATE  = 
ORIGINATOR     = 

OBJECT_NAME    = CZ-2D R/B
OBJECT_ID      = 2005-024B
CENTER_NAME    = EARTH
REF_FRAME      = TEME
TIME_SYSTEM    = UTC
MEAN_ELEMENT_THEORY = SGP/SGP4

EPOCH          = 2026-02-23T00:21:00.514656
MEAN_MOTION    = 15.58735264
ECCENTRICITY   = .00074649
INCLINATION    = 97.3617
RA_OF_ASC_NODE = 68.6386
ARG_OF_PERICENTER = 81.6614
MEAN_ANOMALY   = 278.5488

EPHEMERIS_TYPE = 0
CLASSIFICATION_TYPE = U
NORAD_CAT_ID   = 28738
ELEMENT_SET_NO = 999
REV_AT_EPOCH   = 13749
BSTAR          = .59161461E-3
MEAN_MOTION_DOT = .45684E-3
MEAN_MOTION_DDOT = 0

